SL-16 R/B               
1 23405U 94077B   26195.89155105 -.00000097  00000+0 -24914-4 0  9999
2 23405  70.9822  84.8784 0004079 303.5176  56.5557 14.15574286634232
ARIANE 40+ R/B          
1 23561U 95021B   26195.79422374  .00000117  00000+0  50948-4 0  9993
2 23561  98.4401 265.4688 0007891 117.5067   8.0673 14.39847424637530
SL-16 R/B               
1 23705U 95058B   26195.62199185  .00000143  00000+0  97514-4 0  9995
2 23705  71.0210 273.7590 0014610 283.5085  76.4410 14.15508580585812
SL-16 R/B               
1 24298U 96051B   26195.65091691  .00000156  00000+0  11113-3 0  9997
2 24298  70.7647 266.5289 0017760 298.7889  61.1447 14.12456256539576
ORBVIEW 2 (SEASTAR)     
1 24883U 97037A   26195.89952191  .00000092  00000+0  48113-4 0  9999
2 24883  98.8713   3.6902 0003105  61.6164 298.5333 14.35566697526723
SL-16 R/B               
1 25400U 98043G   26195.86655128 -.00000004  00000+0  17284-4 0  9999
2 25400  98.8379 150.2662 0010050  12.4106 347.7319 14.26072659457113
SL-16 R/B               
1 25407U 98045B   26195.64127121 -.00000213  00000+0 -83583-4 0  9999
2 25407  71.0111 274.5935 0008206 207.4322 152.6369 14.16205496445072
ISS (ZARYA)             
1 25544U 98067A   26196.12126347  .00002630  00000+0  55898-4 0  9999
2 25544  51.6305 161.8506 0007251 303.7745  56.2552 15.49005161576086
CZ-4B R/B               
1 25732U 99025C   26195.73200256  .00000019  00000+0  30054-4 0  9997
2 25732  98.6472 236.8754 0036659 341.0970 130.5114 14.18287646406175
OKEAN-O                 
1 25860U 99039A   26195.72014342  .00000267  00000+0  41628-4 0  9996
2 25860  97.9302 254.1999 0000903  85.5938 274.5378 14.80497069453187
SL-16 R/B               
1 25861U 99039B   26195.71637860  .00000216  00000+0  34052-4 0  9999
2 25861  97.9824 254.4989 0014274 199.9927 160.0728 14.81870483455673
DELTA 2 R/B             
1 25876U 99041E   26195.28463832  .00001336  00000+0  25316-3 0  9992
2 25876  51.7612 155.5352 0501364   2.0695 358.2160 14.12082542380914
HELIOS 1B               
1 25977U 99064A   26195.74840462  .00000664  00000+0  78572-4 0  9994
2 25977  98.1585 101.6834 0001961  54.2215 305.9183 14.88074608704159
TERRA                   
1 25994U 99068A   26195.90054461  .00000192  00000+0  47981-4 0  9997
2 25994  97.9442 244.3459 0003399 123.2466 355.1489 14.61123566413654
SL-16 R/B               
1 26070U 00006B   26195.40695707 -.00000171  00000+0 -62755-4 0  9991
2 26070  71.0002 191.3903 0017167 341.0591  18.9892 14.15838156366495
TITAN 4B R/B            
1 26474U 00047B   26195.87560501  .00001236  00000+0  81899-4 0  9999
2 26474  67.9873  42.6272 0045843 259.0683 100.5307 15.10332215412113
ENVISAT                 
1 27386U 02009A   26195.85116837  .00000017  00000+0  19377-4 0  9997
2 27386  98.3846 146.5548 0001330  83.5093 331.0582 14.39070704277467
IDEFIX & ARIANE 42P R/B 
1 27422U 02021B   26195.81666542  .00000085  00000+0  48864-4 0  9999
2 27422  98.5942 133.0011 0011865 167.5595 192.5883 14.31093652262206
AQUA                    
1 27424U 02022A   26195.50499725  .00000358  00000+0  80864-4 0  9994
2 27424  98.4295 165.3370 0000927 111.8770   0.7592 14.62196472287266
CZ-4B R/B               
1 27432U 02024C   26195.76463521  .00000008  00000+0  26782-4 0  9999
2 27432  98.8687 248.4036 0050492  23.2026  85.5401 14.14568199247204
MIDORI II (ADEOS-II)    
1 27597U 02056A   26195.85855374  .00000093  00000+0  54332-4 0  9993
2 27597  98.7894 155.3561 0001492  41.2919 318.8375 14.29362945228467
H-2A R/B                
1 27601U 02056E   26195.92656067  .00000116  00000+0  55126-4 0  9993
2 27601  98.3328 151.5922 0070871 141.7210 286.0147 14.33833815232346
CZ-4B R/B               
1 28059U 03049C   26195.87419988  .00000133  00000+0  42211-4 0  9997
2 28059  98.6909 195.8244 0047620 202.2447 157.6683 14.55115964205093
CZ-2C R/B               
1 28222U 04012C   26195.80295926  .00103803  00000+0  43667-3 0  9990
2 28222  97.7048 274.8063 0011203 191.8048 168.2961 15.85123511224262
SL-16 R/B               
1 28353U 04021B   26195.80965154 -.00000015  00000+0  17067-4 0  9990
2 28353  71.0028 325.7174 0006324 225.4145 134.6462 14.14616433140811
CZ-4B R/B               
1 28415U 04035C   26195.65206726  .00004106  00000+0  13801-3 0  9995
2 28415  97.3356 228.4210 0029202 234.6367 125.2145 15.30987155199328
CZ-2C R/B               
1 28480U 04046B   26195.74750427  .00000060  00000+0  36932-4 0  9997
2 28480  98.1917 102.8022 0140101 138.7113 222.4765 14.27033036126629
ARIANE 5 R/B            
1 28499U 04049H   26195.94960222  .00000225  00000+0  31783-4 0  9990
2 28499  98.2741   9.2793 0082651 299.0967  60.1989 14.85478793164683
CZ-2D R/B               
1 28738U 05024B   26195.60649926  .00045115  00000+0  33563-3 0  9992
2 28738  97.3471 216.4662 0002298 192.6193 167.5013 15.72696978159648
ALOS (DAICHI)           
1 28931U 06002A   26195.86081981  .00000462  00000+0  85198-4 0  9991
2 28931  98.1339 151.3450 0000805  98.0057 262.1241 14.70101363 92161
